{"type": "FeatureCollection", "features": [ {"type": "Feature", "properties": {"norad_id": 52912, "name": "GAOFEN-12 03", "group": "resource", "lat": -16.292599189313673, "lon": 59.17800595767843, "alt_km": 636.5093474140604, "timestamp": "2025-12-20T07:33:50.461508+00:00", "meta": {"OBJECT_NAME": "GAOFEN-12 03", "OBJECT_ID": "2022-069A", "EPOCH": "2025-12-19T22:33:52.112736", "MEAN_MOTION": 14.79626854, "ECCENTRICITY": 0.0002025, "INCLINATION": 97.849, "RA_OF_ASC_NODE": 241.1225, "ARG_OF_PERICENTER": 54.4329, "MEAN_ANOMALY": 305.7072, "EPHEMERIS_TYPE": 0, "CLASSIFICATION_TYPE": "U", "NORAD_CAT_ID": 52912, "ELEMENT_SET_NO": 999, "REV_AT_EPOCH": 18810, "BSTAR": 0.00017413589, "MEAN_MOTION_DOT": 1.255e-05, "MEAN_MOTION_DDOT": 0}, "tle": {"line1": "1 52912U 22069A   25353.94018649  .00001255  00000+0  17414-3 0  9999", "line2": "2 52912  97.8490 241.1225 0002025  54.4329 305.7072 14.79626854188105"}}, "geometry": {"type": "Point", "coordinates": [59.17800595767843, -16.292599189313673]}}, {"type": "Feature", "properties": {"norad_id": 54754, "name": "SWOT", "group": "resource", "lat": 8.308677362800733, "lon": 94.92462125223228, "alt_km": 894.7678540302522, "timestamp": "2025-12-20T07:33:50.461519+00:00", "meta": {"OBJECT_NAME": "SWOT", "OBJECT_ID": "2022-173A", "EPOCH": "2025-12-19T20:27:31.631616", "MEAN_MOTION": 14.00167881, "ECCENTRICITY": 3.604e-05, "INCLINATION": 77.6109, "RA_OF_ASC_NODE": 277.3885, "ARG_OF_PERICENTER": 93.2451, "MEAN_ANOMALY": 266.8741, "EPHEMERIS_TYPE": 0, "CLASSIFICATION_TYPE": "U", "NORAD_CAT_ID": 54754, "ELEMENT_SET_NO": 999, "REV_AT_EPOCH": 15405, "BSTAR": 1.8041999e-05, "MEAN_MOTION_DOT": 2.4e-07, "MEAN_MOTION_DDOT": 0}, "tle": {"line1": "1 54754U 22173A   25353.85244944  .00000024  00000+0  18042-4 0  9992", "line2": "2 54754  77.6109 277.3885 0000360  93.2451 266.8741 14.00167881154055"}}, "geometry": {"type": "Point", "coordinates": [94.92462125223228, 8.308677362800733]}}, {"type": "Feature", "properties": {"norad_id": 57654, "name": "GAOFEN-12 04", "group": "resource", "lat": 8.273406742967872, "lon": -91.20143285759272, "alt_km": 631.7551773575224, "timestamp": "2025-12-20T07:33:50.461529+00:00", "meta": {"OBJECT_NAME": "GAOFEN-12 04", "OBJECT_ID": "2023-123A", "EPOCH": "2025-12-19T21:47:19.948128", "MEAN_MOTION": 14.79718988, "ECCENTRICITY": 0.00012349, "INCLINATION": 97.9127, "RA_OF_ASC_NODE": 269.5563, "ARG_OF_PERICENTER": 77.1709, "MEAN_ANOMALY": 282.9641, "EPHEMERIS_TYPE": 0, "CLASSIFICATION_TYPE": "U", "NORAD_CAT_ID": 57654, "ELEMENT_SET_NO": 999, "REV_AT_EPOCH": 12611, "BSTAR": 0.00012981063, "MEAN_MOTION_DOT": 9.24e-06, "MEAN_MOTION_DDOT": 0}, "tle": {"line1": "1 57654U 23123A   25353.90786977  .00000924  00000+0  12981-3 0  9997", "line2": "2 57654  97.9127 269.5563 0001234  77.1709 282.9641 14.79718988126116"}}, "geometry": {"type": "Point", "coordinates": [-91.20143285759272, 8.273406742967872]}}, {"type": "Feature", "properties": {"norad_id": 59065, "name": "PARS 1", "group": "resource", "lat": -80.83167289651018, "lon": 19.730386749536454, "alt_km": 455.83614609268625, "timestamp": "2025-12-20T07:33:50.461539+00:00", "meta": {"OBJECT_NAME": "PARS 1", "OBJECT_ID": "2024-039Q", "EPOCH": "2025-12-19T22:34:52.192704", "MEAN_MOTION": 15.41128111, "ECCENTRICITY": 0.00121092, "INCLINATION": 97.4638, "RA_OF_ASC_NODE": 325.0269, "ARG_OF_PERICENTER": 50.4841, "MEAN_ANOMALY": 309.7474, "EPHEMERIS_TYPE": 0, "CLASSIFICATION_TYPE": "U", "NORAD_CAT_ID": 59065, "ELEMENT_SET_NO": 999, "REV_AT_EPOCH": 10099, "BSTAR": 0.00020713504, "MEAN_MOTION_DOT": 8.51e-05, "MEAN_MOTION_DDOT": 0}, "tle": {"line1": "1 59065U 24039Q   25353.94088186  .00008510  00000+0  20714-3 0  9995", "line2": "2 59065  97.4638 325.0269 0012109  50.4841 309.7474 15.41128111100994"}}, "geometry": {"type": "Point", "coordinates": [19.730386749536454, -80.83167289651018]}}, {"type": "Feature", "properties": {"norad_id": 59371, "name": "RESURS-P 4", "group": "resource", "lat": 6.011628359029867, "lon": 121.25866326307306, "alt_km": 472.01966050395004, "timestamp": "2025-12-20T07:33:50.461549+00:00", "meta": {"OBJECT_NAME": "RESURS-P 4", "OBJECT_ID": "2024-061A", "EPOCH": "2025-12-19T22:58:14.089728", "MEAN_MOTION": 15.3213882, "ECCENTRICITY": 0.00010383, "INCLINATION": 97.2555, "RA_OF_ASC_NODE": 300.1391, "ARG_OF_PERICENTER": 60.005, "MEAN_ANOMALY": 300.1295, "EPHEMERIS_TYPE": 0, "CLASSIFICATION_TYPE": "U", "NORAD_CAT_ID": 59371, "ELEMENT_SET_NO": 999, "REV_AT_EPOCH": 9631, "BSTAR": 9.8572532e-05, "MEAN_MOTION_DOT": 2.983e-05, "MEAN_MOTION_DDOT": 0}, "tle": {"line1": "1 59371U 24061A   25353.95710752  .00002983  00000+0  98573-4 0  9999", "line2": "2 59371  97.2555 300.1391 0001038  60.0050 300.1295 15.32138820 96312"}}, "geometry": {"type": "Point", "coordinates": [121.25866326307306, 6.011628359029867]}}, {"type": "Feature", "properties": {"norad_id": 59625, "name": "LEGION 1", "group": "resource", "lat": -25.57190541066398, "lon": 72.5139053290157, "alt_km": 520.4069426865444, "timestamp": "2025-12-20T07:33:50.461560+00:00", "meta": {"OBJECT_NAME": "LEGION 1", "OBJECT_ID": "2024-081A", "EPOCH": "2025-12-19T22:10:34.509792", "MEAN_MOTION": 15.1654522, "ECCENTRICITY": 0.00036426, "INCLINATION": 97.521, "RA_OF_ASC_NODE": 68.5014, "ARG_OF_PERICENTER": 285.0786, "MEAN_ANOMALY": 75.0043, "EPHEMERIS_TYPE": 0, "CLASSIFICATION_TYPE": "U", "NORAD_CAT_ID": 59625, "ELEMENT_SET_NO": 999, "REV_AT_EPOCH": 9036, "BSTAR": 0.00015931933, "MEAN_MOTION_DOT": 3.04e-05, "MEAN_MOTION_DDOT": 0}, "tle": {"line1": "1 59625U 24081A   25353.92401053  .00003040  00000+0  15932-3 0  9993", "line2": "2 59625  97.5210  68.5014 0003642 285.0786  75.0043 15.16545220 90366"}}, "geometry": {"type": "Point", "coordinates": [72.5139053290157, -25.57190541066398]}}, {"type": "Feature", "properties": {"norad_id": 59626, "name": "LEGION 2", "group": "resource", "lat": 25.3450418554697, "lon": -107.43493423713349, "alt_km": 516.6517347451436, "timestamp": "2025-12-20T07:33:50.461571+00:00", "meta": {"OBJECT_NAME": "LEGION 2", "OBJECT_ID": "2024-081B", "EPOCH": "2025-12-19T21:23:02.476896", "MEAN_MOTION": 15.16558357, "ECCENTRICITY": 0.00056284, "INCLINATION": 97.5213, "RA_OF_ASC_NODE": 68.5565, "ARG_OF_PERICENTER": 262.4984, "MEAN_ANOMALY": 97.561, "EPHEMERIS_TYPE": 0, "CLASSIFICATION_TYPE": "U", "NORAD_CAT_ID": 59626, "ELEMENT_SET_NO": 999, "REV_AT_EPOCH": 9036, "BSTAR": 0.000197742, "MEAN_MOTION_DOT": 3.792e-05, "MEAN_MOTION_DDOT": 0}, "tle": {"line1": "1 59626U 24081B   25353.89100089  .00003792  00000+0  19774-3 0  9997", "line2": "2 59626  97.5213  68.5565 0005628 262.4984  97.5610 15.16558357 90360"}}, "geometry": {"type": "Point", "coordinates": [-107.43493423713349, 25.3450418554697]}}, {"type": "Feature", "properties": {"norad_id": 60182, "name": "ALOS-4 (DAICHI-4)", "group": "resource", "lat": -61.593865766647646, "lon": -105.86621534141227, "alt_km": 638.9257175979483, "timestamp": "2025-12-20T07:33:50.461582+00:00", "meta": {"OBJECT_NAME": "ALOS-4 (DAICHI-4)", "OBJECT_ID": "2024-123A", "EPOCH": "2025-12-19T22:21:18.106848", "MEAN_MOTION": 14.79474129, "ECCENTRICITY": 0.00013822, "INCLINATION": 97.9224, "RA_OF_ASC_NODE": 88.6761, "ARG_OF_PERICENTER": 101.3825, "MEAN_ANOMALY": 258.7542, "EPHEMERIS_TYPE": 0, "CLASSIFICATION_TYPE": "U", "NORAD_CAT_ID": 60182, "ELEMENT_SET_NO": 999, "REV_AT_EPOCH": 7937, "BSTAR": 0.00019337671, "MEAN_MOTION_DOT": 1.393e-05, "MEAN_MOTION_DDOT": 0}, "tle": {"line1": "1 60182U 24123A   25353.93145957  .00001393  00000+0  19338-3 0  9992", "line2": "2 60182  97.9224  88.6761 0001382 101.3825 258.7542 14.79474129 79379"}}, "geometry": {"type": "Point", "coordinates": [-105.86621534141227, -61.593865766647646]}}, {"type": "Feature", "properties": {"norad_id": 60452, "name": "LEGION 3", "group": "resource", "lat": -42.31068773300819, "lon": 155.14024766304135, "alt_km": 511.5138051223694, "timestamp": "2025-12-20T07:33:50.461592+00:00", "meta": {"OBJECT_NAME": "LEGION 3", "OBJECT_ID": "2024-146A", "EPOCH": "2025-12-19T20:57:57.766464", "MEAN_MOTION": 15.15831408, "ECCENTRICITY": 0.00156347, "INCLINATION": 45.0021, "RA_OF_ASC_NODE": 271.8877, "ARG_OF_PERICENTER": 237.0993, "MEAN_ANOMALY": 122.8381, "EPHEMERIS_TYPE": 0, "CLASSIFICATION_TYPE": "U", "NORAD_CAT_ID": 60452, "ELEMENT_SET_NO": 999, "REV_AT_EPOCH": 7481, "BSTAR": 0.0001725552, "MEAN_MOTION_DOT": 3.098e-05, "MEAN_MOTION_DDOT": 0}, "tle": {"line1": "1 60452U 24146A   25353.87358526  .00003098  00000+0  17256-3 0  9999", "line2": "2 60452  45.0021 271.8877 0015634 237.0993 122.8381 15.15831408 74814"}}, "geometry": {"type": "Point", "coordinates": [155.14024766304135, -42.31068773300819]}}, {"type": "Feature", "properties": {"norad_id": 60453, "name": "LEGION 4", "group": "resource", "lat": -41.821384165772116, "lon": -115.30625215114985, "alt_km": 523.0079505964932, "timestamp": "2025-12-20T07:33:50.461603+00:00", "meta": {"OBJECT_NAME": "LEGION 4", "OBJECT_ID": "2024-146B", "EPOCH": "2025-12-19T20:58:26.370912", "MEAN_MOTION": 15.15893428, "ECCENTRICITY": 0.00088008, "INCLINATION": 45.0395, "RA_OF_ASC_NODE": 3.6582, "ARG_OF_PERICENTER": 349.2141, "MEAN_ANOMALY": 10.8548, "EPHEMERIS_TYPE": 0, "CLASSIFICATION_TYPE": "U", "NORAD_CAT_ID": 60453, "ELEMENT_SET_NO": 999, "REV_AT_EPOCH": 7366, "BSTAR": 0.00018434267, "MEAN_MOTION_DOT": 3.328e-05, "MEAN_MOTION_DDOT": 0}, "tle": {"line1": "1 60453U 24146B   25353.87391633  .00003328  00000+0  18434-3 0  9991", "line2": "2 60453  45.0395   3.6582 0008800 349.2141  10.8548 15.15893428 73664"}}, "geometry": {"type": "Point", "coordinates": [-115.30625215114985, -41.821384165772116]}}]}